TRANSPORTER-12 OBJECT AZ
1 62656U 25009AZ  26068.71026235  .00016057  00000+0  54903-3 0  9991
2 62656  97.3981 151.9913 0000987  45.3581 314.7740 15.30349724 63792
STARLINK-35384          
1 65884U 25224C   26068.10534586  .00035461  00000+0  12035-2 0  9991
2 65884  53.1627  14.1515 0000809  90.1051 270.0043 15.30204517 24737
